[{"OBJECT_NAME":"STARLINK-3986","OBJECT_ID":"2022-052AB","EPOCH":"2026-03-09T20:42:28.225152","MEAN_MOTION":15.08828405,"ECCENTRICITY":0.00012024,"INCLINATION":53.217,"RA_OF_ASC_NODE":268.346,"ARG_OF_PERICENTER":94.8521,"MEAN_ANOMALY":265.2609,"EPHEMERIS_TYPE":0,"CLASSIFICATION_TYPE":"U","NORAD_CAT_ID":52623,"ELEMENT_SET_NO":999,"REV_AT_EPOCH":21101,"BSTAR":-1.6246479e-5,"MEAN_MOTION_DOT":-5.46e-6,"MEAN_MOTION_DDOT":0},{"OBJECT_NAME":"CZ-4C R\/B","OBJECT_ID":"2023-136B","EPOCH":"2026-03-09T22:23:17.511648","MEAN_MOTION":15.02951771,"ECCENTRICITY":0.01088591,"INCLINATION":98.3028,"RA_OF_ASC_NODE":56.8789,"ARG_OF_PERICENTER":268.7974,"MEAN_ANOMALY":90.0776,"EPHEMERIS_TYPE":0,"CLASSIFICATION_TYPE":"U","NORAD_CAT_ID":57798,"ELEMENT_SET_NO":999,"REV_AT_EPOCH":13700,"BSTAR":0.0002043348,"MEAN_MOTION_DOT":3.042e-5,"MEAN_MOTION_DDOT":0}]
